LANDSAT 9               
1 49260U 21088A   24243.19680986  .00001296  00000+0  29767-3 0  9993
2 49260  98.2265 311.8789 0001189  93.0649 267.0685 14.57116609155467
